{"type": "FeatureCollection", "features": [ {"type": "Feature", "properties": {"norad_id": 51444, "name": "CSG-2", "group": "resource", "lat": -24.24593834777591, "lon": 165.60057461696292, "alt_km": 628.4938563033447, "timestamp": "2025-12-06T14:35:36.785314+00:00", "meta": {"OBJECT_NAME": "CSG-2", "OBJECT_ID": "2022-008A", "EPOCH": "2025-12-06T06:36:09.173952", "MEAN_MOTION": 14.82153619, "ECCENTRICITY": 0.00014972, "INCLINATION": 97.8814, "RA_OF_ASC_NODE": 161.6958, "ARG_OF_PERICENTER": 88.7377, "MEAN_ANOMALY": 271.4008, "EPHEMERIS_TYPE": 0, "CLASSIFICATION_TYPE": "U", "NORAD_CAT_ID": 51444, "ELEMENT_SET_NO": 999, "REV_AT_EPOCH": 20801, "BSTAR": 0.00012096698, "MEAN_MOTION_DOT": 9.11e-06, "MEAN_MOTION_DDOT": 0}, "tle": {"line1": "1 51444U 22008A   25340.27510618  .00000911  00000+0  12097-3 0  9996", "line2": "2 51444  97.8814 161.6958 0001497  88.7377 271.4008 14.82153619208017"}}, "geometry": {"type": "Point", "coordinates": [165.60057461696292, -24.24593834777591]}}, {"type": "Feature", "properties": {"norad_id": 52912, "name": "GAOFEN-12 03", "group": "resource", "lat": -50.792890085621046, "lon": -122.1662832703346, "alt_km": 638.4653568274507, "timestamp": "2025-12-06T14:35:36.785324+00:00", "meta": {"OBJECT_NAME": "GAOFEN-12 03", "OBJECT_ID": "2022-069A", "EPOCH": "2025-12-06T06:42:37.600704", "MEAN_MOTION": 14.79585738, "ECCENTRICITY": 0.00023161, "INCLINATION": 97.849, "RA_OF_ASC_NODE": 227.7776, "ARG_OF_PERICENTER": 73.3611, "MEAN_ANOMALY": 286.7855, "EPHEMERIS_TYPE": 0, "CLASSIFICATION_TYPE": "U", "NORAD_CAT_ID": 52912, "ELEMENT_SET_NO": 999, "REV_AT_EPOCH": 18608, "BSTAR": 0.00032737084, "MEAN_MOTION_DOT": 2.402e-05, "MEAN_MOTION_DDOT": 0}, "tle": {"line1": "1 52912U 22069A   25340.27960186  .00002402  00000+0  32737-3 0  9993", "line2": "2 52912  97.8490 227.7776 0002316  73.3611 286.7855 14.79585738186080"}}, "geometry": {"type": "Point", "coordinates": [-122.1662832703346, -50.792890085621046]}}, {"type": "Feature", "properties": {"norad_id": 54754, "name": "SWOT", "group": "resource", "lat": -50.7694592577327, "lon": 130.88599355561087, "alt_km": 899.9709188499601, "timestamp": "2025-12-06T14:35:36.785334+00:00", "meta": {"OBJECT_NAME": "SWOT", "OBJECT_ID": "2022-173A", "EPOCH": "2025-12-06T06:37:38.904672", "MEAN_MOTION": 14.00173228, "ECCENTRICITY": 3.451e-05, "INCLINATION": 77.61, "RA_OF_ASC_NODE": 295.7154, "ARG_OF_PERICENTER": 132.6188, "MEAN_ANOMALY": 227.4993, "EPHEMERIS_TYPE": 0, "CLASSIFICATION_TYPE": "U", "NORAD_CAT_ID": 54754, "ELEMENT_SET_NO": 999, "REV_AT_EPOCH": 15215, "BSTAR": 0.00012003539, "MEAN_MOTION_DOT": 1.74e-06, "MEAN_MOTION_DDOT": 0}, "tle": {"line1": "1 54754U 22173A   25340.27614473  .00000174  00000+0  12004-3 0  9999", "line2": "2 54754  77.6100 295.7154 0000345 132.6188 227.4993 14.00173228152150"}}, "geometry": {"type": "Point", "coordinates": [130.88599355561087, -50.7694592577327]}}, {"type": "Feature", "properties": {"norad_id": 57654, "name": "GAOFEN-12 04", "group": "resource", "lat": 62.60126155358745, "lon": 92.02180461726394, "alt_km": 623.554303685467, "timestamp": "2025-12-06T14:35:36.785344+00:00", "meta": {"OBJECT_NAME": "GAOFEN-12 04", "OBJECT_ID": "2023-123A", "EPOCH": "2025-12-06T05:57:18.787968", "MEAN_MOTION": 14.79670954, "ECCENTRICITY": 0.00014278, "INCLINATION": 97.9121, "RA_OF_ASC_NODE": 256.1038, "ARG_OF_PERICENTER": 72.4544, "MEAN_ANOMALY": 287.6824, "EPHEMERIS_TYPE": 0, "CLASSIFICATION_TYPE": "U", "NORAD_CAT_ID": 57654, "ELEMENT_SET_NO": 999, "REV_AT_EPOCH": 12409, "BSTAR": 0.00040047061, "MEAN_MOTION_DOT": 2.955e-05, "MEAN_MOTION_DDOT": 0}, "tle": {"line1": "1 57654U 23123A   25340.24813412  .00002955  00000+0  40047-3 0  9995", "line2": "2 57654  97.9121 256.1038 0001427  72.4544 287.6824 14.79670954124098"}}, "geometry": {"type": "Point", "coordinates": [92.02180461726394, 62.60126155358745]}}, {"type": "Feature", "properties": {"norad_id": 59065, "name": "PARS 1", "group": "resource", "lat": -63.63299302390359, "lon": 116.07783834573675, "alt_km": 458.88634942436784, "timestamp": "2025-12-06T14:35:36.785354+00:00", "meta": {"OBJECT_NAME": "PARS 1", "OBJECT_ID": "2024-039Q", "EPOCH": "2025-12-06T04:11:02.210496", "MEAN_MOTION": 15.40756573, "ECCENTRICITY": 0.00126942, "INCLINATION": 97.4627, "RA_OF_ASC_NODE": 310.9692, "ARG_OF_PERICENTER": 91.5807, "MEAN_ANOMALY": 268.6894, "EPHEMERIS_TYPE": 0, "CLASSIFICATION_TYPE": "U", "NORAD_CAT_ID": 59065, "ELEMENT_SET_NO": 999, "REV_AT_EPOCH": 9887, "BSTAR": 0.0004192432, "MEAN_MOTION_DOT": 0.00017126, "MEAN_MOTION_DDOT": 0}, "tle": {"line1": "1 59065U 24039Q   25340.17433114  .00017126  00000+0  41924-3 0  9990", "line2": "2 59065  97.4627 310.9692 0012694  91.5807 268.6894 15.40756573 98872"}}, "geometry": {"type": "Point", "coordinates": [116.07783834573675, -63.63299302390359]}}, {"type": "Feature", "properties": {"norad_id": 59371, "name": "RESURS-P 4", "group": "resource", "lat": -40.85386227513914, "lon": 100.73943633404856, "alt_km": 477.7577876828509, "timestamp": "2025-12-06T14:35:36.785364+00:00", "meta": {"OBJECT_NAME": "RESURS-P 4", "OBJECT_ID": "2024-061A", "EPOCH": "2025-12-06T07:21:39.085632", "MEAN_MOTION": 15.32009714, "ECCENTRICITY": 0.00019642, "INCLINATION": 97.254, "RA_OF_ASC_NODE": 286.7687, "ARG_OF_PERICENTER": 53.3068, "MEAN_ANOMALY": 306.8354, "EPHEMERIS_TYPE": 0, "CLASSIFICATION_TYPE": "U", "NORAD_CAT_ID": 59371, "ELEMENT_SET_NO": 999, "REV_AT_EPOCH": 9422, "BSTAR": 0.00022462461, "MEAN_MOTION_DOT": 6.866e-05, "MEAN_MOTION_DDOT": 0}, "tle": {"line1": "1 59371U 24061A   25340.30670238  .00006866  00000+0  22462-3 0  9995", "line2": "2 59371  97.2540 286.7687 0001964  53.3068 306.8354 15.32009714 94221"}}, "geometry": {"type": "Point", "coordinates": [100.73943633404856, -40.85386227513914]}}, {"type": "Feature", "properties": {"norad_id": 59625, "name": "LEGION 1", "group": "resource", "lat": 68.8933027233195, "lon": 35.280630040705155, "alt_km": 509.9084194880579, "timestamp": "2025-12-06T14:35:36.785375+00:00", "meta": {"OBJECT_NAME": "LEGION 1", "OBJECT_ID": "2024-081A", "EPOCH": "2025-12-06T06:21:59.729760", "MEAN_MOTION": 15.16384708, "ECCENTRICITY": 0.00044405, "INCLINATION": 97.5223, "RA_OF_ASC_NODE": 54.9597, "ARG_OF_PERICENTER": 344.7871, "MEAN_ANOMALY": 15.3227, "EPHEMERIS_TYPE": 0, "CLASSIFICATION_TYPE": "U", "NORAD_CAT_ID": 59625, "ELEMENT_SET_NO": 999, "REV_AT_EPOCH": 8829, "BSTAR": 0.00044459639, "MEAN_MOTION_DOT": 8.571e-05, "MEAN_MOTION_DDOT": 0}, "tle": {"line1": "1 59625U 24081A   25340.26527465  .00008571  00000+0  44460-3 0  9994", "line2": "2 59625  97.5223  54.9597 0004440 344.7871  15.3227 15.16384708 88292"}}, "geometry": {"type": "Point", "coordinates": [35.280630040705155, 68.8933027233195]}}, {"type": "Feature", "properties": {"norad_id": 59626, "name": "LEGION 2", "group": "resource", "lat": -68.38944782045972, "lon": -144.09968730365182, "alt_km": 522.5234265502595, "timestamp": "2025-12-06T14:35:36.785386+00:00", "meta": {"OBJECT_NAME": "LEGION 2", "OBJECT_ID": "2024-081B", "EPOCH": "2025-12-06T05:34:36.831072", "MEAN_MOTION": 15.16394723, "ECCENTRICITY": 0.00060843, "INCLINATION": 97.5225, "RA_OF_ASC_NODE": 55.0139, "ARG_OF_PERICENTER": 320.2219, "MEAN_ANOMALY": 39.8568, "EPHEMERIS_TYPE": 0, "CLASSIFICATION_TYPE": "U", "NORAD_CAT_ID": 59626, "ELEMENT_SET_NO": 999, "REV_AT_EPOCH": 8829, "BSTAR": 0.00048025917, "MEAN_MOTION_DOT": 9.269e-05, "MEAN_MOTION_DDOT": 0}, "tle": {"line1": "1 59626U 24081B   25340.23237073  .00009269  00000+0  48026-3 0  9992", "line2": "2 59626  97.5225  55.0139 0006084 320.2219  39.8568 15.16394723 88297"}}, "geometry": {"type": "Point", "coordinates": [-144.09968730365182, -68.38944782045972]}}, {"type": "Feature", "properties": {"norad_id": 60182, "name": "ALOS-4 (DAICHI-4)", "group": "resource", "lat": 1.4904423983459278, "lon": 75.33517846720258, "alt_km": 633.9588798347186, "timestamp": "2025-12-06T14:35:36.785396+00:00", "meta": {"OBJECT_NAME": "ALOS-4 (DAICHI-4)", "OBJECT_ID": "2024-123A", "EPOCH": "2025-12-06T06:28:15.014208", "MEAN_MOTION": 14.79472049, "ECCENTRICITY": 0.00014373, "INCLINATION": 97.9234, "RA_OF_ASC_NODE": 75.2092, "ARG_OF_PERICENTER": 101.5055, "MEAN_ANOMALY": 258.6318, "EPHEMERIS_TYPE": 0, "CLASSIFICATION_TYPE": "U", "NORAD_CAT_ID": 60182, "ELEMENT_SET_NO": 999, "REV_AT_EPOCH": 7735, "BSTAR": 0.0005889489, "MEAN_MOTION_DOT": 4.35e-05, "MEAN_MOTION_DDOT": 0}, "tle": {"line1": "1 60182U 24123A   25340.26961822  .00004350  00000+0  58895-3 0  9998", "line2": "2 60182  97.9234  75.2092 0001437 101.5055 258.6318 14.79472049 77352"}}, "geometry": {"type": "Point", "coordinates": [75.33517846720258, 1.4904423983459278]}}, {"type": "Feature", "properties": {"norad_id": 60452, "name": "LEGION 3", "group": "resource", "lat": -43.81278259811003, "lon": -123.26631901745942, "alt_km": 523.2230393699483, "timestamp": "2025-12-06T14:35:36.785407+00:00", "meta": {"OBJECT_NAME": "LEGION 3", "OBJECT_ID": "2024-146A", "EPOCH": "2025-12-06T07:07:57.142560", "MEAN_MOTION": 15.1565971, "ECCENTRICITY": 0.00141189, "INCLINATION": 45.0027, "RA_OF_ASC_NODE": 344.6672, "ARG_OF_PERICENTER": 162.8437, "MEAN_ANOMALY": 197.2921, "EPHEMERIS_TYPE": 0, "CLASSIFICATION_TYPE": "U", "NORAD_CAT_ID": 60452, "ELEMENT_SET_NO": 999, "REV_AT_EPOCH": 7275, "BSTAR": 0.00049415577, "MEAN_MOTION_DOT": 9.329e-05, "MEAN_MOTION_DDOT": 0}, "tle": {"line1": "1 60452U 24146A   25340.29718915  .00009329  00000+0  49416-3 0  9999", "line2": "2 60452  45.0027 344.6672 0014118 162.8437 197.2921 15.15659710 72757"}}, "geometry": {"type": "Point", "coordinates": [-123.26631901745942, -43.81278259811003]}}]}